[{"OBJECT_NAME":"STARLINK-33943","OBJECT_ID":"2025-094W","EPOCH":"2026-03-09T20:43:22.907712","MEAN_MOTION":14.98344036,"ECCENTRICITY":0.00031311,"INCLINATION":70.0014,"RA_OF_ASC_NODE":233.8376,"ARG_OF_PERICENTER":269.1852,"MEAN_ANOMALY":90.8948,"EPHEMERIS_TYPE":0,"CLASSIFICATION_TYPE":"U","NORAD_CAT_ID":63884,"ELEMENT_SET_NO":999,"REV_AT_EPOCH":4723,"BSTAR":0.001076013,"MEAN_MOTION_DOT":0.00012774,"MEAN_MOTION_DDOT":0},{"OBJECT_NAME":"COSMOS 2251 DEB","OBJECT_ID":"1993-036BDM","EPOCH":"2026-03-07T08:26:45.291840","MEAN_MOTION":15.06951358,"ECCENTRICITY":0.00416459,"INCLINATION":73.8833,"RA_OF_ASC_NODE":199.9445,"ARG_OF_PERICENTER":129.9164,"MEAN_ANOMALY":230.5698,"EPHEMERIS_TYPE":0,"CLASSIFICATION_TYPE":"U","NORAD_CAT_ID":36551,"ELEMENT_SET_NO":999,"REV_AT_EPOCH":68204,"BSTAR":0.0035281021,"MEAN_MOTION_DOT":0.00054188,"MEAN_MOTION_DDOT":0}]
